[{"OBJECT_NAME":"MESON-1","OBJECT_ID":"2024-043AK","EPOCH":"2026-03-09T21:36:16.481664","MEAN_MOTION":15.29893494,"ECCENTRICITY":0.00095452,"INCLINATION":97.5469,"RA_OF_ASC_NODE":205.2839,"ARG_OF_PERICENTER":227.1432,"MEAN_ANOMALY":132.9007,"EPHEMERIS_TYPE":0,"CLASSIFICATION_TYPE":"U","NORAD_CAT_ID":59131,"ELEMENT_SET_NO":999,"REV_AT_EPOCH":11189,"BSTAR":0.0002974823,"MEAN_MOTION_DOT":8.544e-5,"MEAN_MOTION_DDOT":0},{"OBJECT_NAME":"STARLINK-33777","OBJECT_ID":"2025-093H","EPOCH":"2026-03-09T10:01:33.985344","MEAN_MOTION":15.27563587,"ECCENTRICITY":0.00011492,"INCLINATION":43.0024,"RA_OF_ASC_NODE":79.1697,"ARG_OF_PERICENTER":222.3883,"MEAN_ANOMALY":137.688,"EPHEMERIS_TYPE":0,"CLASSIFICATION_TYPE":"U","NORAD_CAT_ID":63843,"ELEMENT_SET_NO":999,"REV_AT_EPOCH":4793,"BSTAR":0.00043491744,"MEAN_MOTION_DOT":0.00011719,"MEAN_MOTION_DDOT":0}]
